QIANFAN-204             
1 69803U 26153D   26204.21346372  .00000159  00000+0  68015-4 0  9993
2 69803  88.9931 358.1325 0008610 154.5412 205.6204 14.20115800  2687
QIANFAN-205             
1 69804U 26153E   26204.21241742  .00000135  00000+0  58435-4 0  9998
2 69804  88.9930 358.1320 0008476 152.2213 207.9431 14.18483042  2686
QIANFAN-206             
1 69805U 26153F   26204.26908068  .00000092  00000+0  37120-4 0  9995
2 69805  88.9930 358.1220 0008685 153.3644 206.7993 14.18783176  2690
QIANFAN-207             
1 69806U 26153G   26204.26446940  .00000181  00000+0  78779-4 0  9996
2 69806  88.9930 358.1214 0008270 150.5411 209.6246 14.19832088  2696
QIANFAN-208             
1 69807U 26153H   26204.25359411  .00000133  00000+0  52697-4 0  9990
2 69807  88.9930 358.1196 0009337 155.8139 204.3493 14.22846963  2693
QIANFAN-209             
1 69808U 26153J   26204.26993591  .00000168  00000+0  72801-4 0  9992
2 69808  88.9930 358.1222 0008550 151.4644 208.7015 14.19691668  2697
QIANFAN-210             
1 69809U 26153K   26204.26467203  .00000207  00000+0  90847-4 0  9993
2 69809  88.9931 358.1216 0008712 153.6962 206.4672 14.19937813  2698
QIANFAN-211             
1 69810U 26153L   26204.26358140  .00000141  00000+0  59153-4 0  9996
2 69810  88.9930 358.1212 0008104 152.3412 207.8211 14.20224570  2691
QIANFAN-212             
1 69811U 26153M   26204.25677280  .00000098  00000+0  38494-4 0  9991
2 69811  88.9930 358.1200 0009263 157.1199 203.0406 14.20820260  2693
QIANFAN-213             
1 69812U 26153N   26204.25505111  .00000097  00000+0  38021-4 0  9990
2 69812  88.9930 358.1197 0008183 152.6825 207.4797 14.21099608  2691
QIANFAN-214             
1 69813U 26153P   26204.24262436  .00000160  00000+0  61496-4 0  9993
2 69813  88.9930 358.1180 0008837 157.7773 202.3805 14.25492715  2692
QIANFAN-215             
1 69814U 26153Q   26204.23921339  .00000150  00000+0  55950-4 0  9994
2 69814  88.9929 358.1172 0008858 159.4544 200.7007 14.26680672  2698
QIANFAN-216             
1 69815U 26153R   26204.23920296  .00000207  00000+0  79728-4 0  9998
2 69815  88.9930 358.1175 0009088 159.8953 200.2601 14.26677709  2690
QIANFAN-217             
1 69816U 26153S   26204.23843519  .00000113  00000+0  40718-4 0  9994
2 69816  88.9929 358.1171 0008599 157.3706 202.7868 14.26768888  2691
QIANFAN-218             
1 69817U 26153T   26204.23787850  .00000185  00000+0  70482-4 0  9990
2 69817  88.9932 358.1177 0008361 154.9520 205.2081 14.26812790  2693
CZ-6A R/B               
1 69818U 26153U   26204.16904632  .00000303  00000+0  65103-4 0  9998
2 69818  89.0172 358.0370 0086720  60.3867 300.5945 14.53451811  2731
STARLINK-37520          
1 69819U 26154A   26204.28699131  .00280751  00000+0  13693-2 0  9990
2 69819  53.1578 252.3986 0001026 138.1011 222.0090 15.81044692  4091
STARLINK-37553          
1 69820U 26154B   26204.28624192  .00372601  00000+0  17994-2 0  9991
2 69820  53.1572 252.3938 0000913 136.0045 224.1050 15.81012338  4093
STARLINK-37561          
1 69821U 26154C   26204.15905063  .00393992  00000+0  18926-2 0  9999
2 69821  53.1577 253.0219 0001836 133.7855 226.3320 15.81072119  4072
STARLINK-37521          
1 69822U 26154D   26203.84221246  .00339377  00000+0  16500-2 0  9992
2 69822  53.1576 254.6015 0002384  64.3116 295.8152 15.80955376  4024
STARLINK-37628          
1 69823U 26154E   26203.84145691  .00305848  00000+0  14936-2 0  9999
2 69823  53.1577 254.5963 0001284  98.8087 261.3081 15.80949146  4021
STARLINK-37695          
1 69824U 26154F   26203.58162875  .00112317  00000+0  56419-3 0  9994
2 69824  53.1579 255.8167 0001104  41.0108 319.0998 15.80912502  3987
STARLINK-37690          
1 69825U 26154G   26203.52385513  .00213642  00000+0  10576-2 0  9991
2 69825  53.1581 256.1706 0001391  85.9611 274.1570 15.80909789  3977
STARLINK-37710          
1 69826U 26154H   26204.28174098  .00519584  00000+0  24461-2 0  9992
2 69826  53.1578 252.3630 0001309 167.9651 192.1403 15.81180042  4094
STARLINK-38031          
1 69827U 26154J   26203.52235523  .00264809  00000+0  13000-2 0  9994
2 69827  53.1580 256.1601 0001334  63.8306 296.2853 15.80947252  3971
STARLINK-38001          
1 69828U 26154K   26203.58482216  .00132836  00000+0  66569-3 0  9997
2 69828  53.1584 255.8380 0001095 137.5046 222.6062 15.80891298  3984
STARLINK-37622          
1 69829U 26154L   26203.58407518  .00173961  00000+0  86542-3 0  9997
2 69829  53.1582 255.8333 0001541  38.0483 322.0649 15.80919119  3986
STARLINK-37621          
1 69830U 26154M   26203.58333046  .00137815  00000+0  69013-3 0  9995
2 69830  53.1586 255.8272 0003174  16.6526 343.4600 15.80886511  3981
STARLINK-37918          
1 69831U 26154N   26203.51935529  .00147837  00000+0  73962-3 0  9996
2 69831  53.1580 256.1398 0001283  93.8146 266.3024 15.80878060  3975
STARLINK-37887          
1 69832U 26154P   26203.64503808  .00225006  00000+0  11106-2 0  9998
2 69832  53.1579 255.5005 0002218 155.2003 204.9127 15.80940787  3996
