OBJECT_NAME,OBJECT_ID,EPOCH,MEAN_MOTION,ECCENTRICITY,INCLINATION,RA_OF_ASC_NODE,ARG_OF_PERICENTER,MEAN_ANOMALY,EPHEMERIS_TYPE,CLASSIFICATION_TYPE,NORAD_CAT_ID,ELEMENT_SET_NO,REV_AT_EPOCH,BSTAR,MEAN_MOTION_DOT,MEAN_MOTION_DDOT
QIANFAN-204,2026-153D,2026-07-23T05:07:23.265408,14.20115800,.00086108,88.9931,358.1325,154.5412,205.6204,0,U,69803,999,268,.68014759E-4,.159E-5,0
QIANFAN-205,2026-153E,2026-07-23T05:05:52.865088,14.18483042,.00084762,88.9930,358.1320,152.2213,207.9431,0,U,69804,999,268,.5843489E-4,.135E-5,0
QIANFAN-206,2026-153F,2026-07-23T06:27:28.570752,14.18783176,.00086854,88.9930,358.1220,153.3644,206.7993,0,U,69805,999,269,.37120144E-4,.92E-6,0
QIANFAN-207,2026-153G,2026-07-23T06:20:50.156160,14.19832088,.00082709,88.9930,358.1214,150.5411,209.6246,0,U,69806,999,269,.78779254E-4,.181E-5,0
QIANFAN-208,2026-153H,2026-07-23T06:05:10.531104,14.22846963,.0009337,88.9930,358.1196,155.8139,204.3493,0,U,69807,999,269,.52697216E-4,.133E-5,0
QIANFAN-209,2026-153J,2026-07-23T06:28:42.462624,14.19691668,.00085502,88.9930,358.1222,151.4644,208.7015,0,U,69808,999,269,.72801337E-4,.168E-5,0
QIANFAN-210,2026-153K,2026-07-23T06:21:07.663392,14.19937813,.00087128,88.9931,358.1216,153.6962,206.4672,0,U,69809,999,269,.90847449E-4,.207E-5,0
QIANFAN-211,2026-153L,2026-07-23T06:19:33.432960,14.20224570,.00081045,88.9930,358.1212,152.3412,207.8211,0,U,69810,999,269,.59152928E-4,.141E-5,0
QIANFAN-212,2026-153M,2026-07-23T06:09:45.169920,14.20820260,.00092637,88.9930,358.1200,157.1199,203.0406,0,U,69811,999,269,.38494242E-4,.98E-6,0
QIANFAN-213,2026-153N,2026-07-23T06:07:16.415904,14.21099608,.00081831,88.9930,358.1197,152.6825,207.4797,0,U,69812,999,269,.38021415E-4,.97E-6,0
QIANFAN-214,2026-153P,2026-07-23T05:49:22.744704,14.25492715,.00088379,88.9930,358.1180,157.7773,202.3805,0,U,69813,999,269,.61495879E-4,.16E-5,0
QIANFAN-215,2026-153Q,2026-07-23T05:44:28.036896,14.26680672,.00088583,88.9929,358.1172,159.4544,200.7007,0,U,69814,999,269,.55950038E-4,.15E-5,0
QIANFAN-216,2026-153R,2026-07-23T05:44:27.135744,14.26677709,.00090888,88.9930,358.1175,159.8953,200.2601,0,U,69815,999,269,.79728456E-4,.207E-5,0
QIANFAN-217,2026-153S,2026-07-23T05:43:20.800416,14.26768888,.00085994,88.9929,358.1171,157.3706,202.7868,0,U,69816,999,269,.40717672E-4,.113E-5,0
QIANFAN-218,2026-153T,2026-07-23T05:42:32.702400,14.26812790,.00083615,88.9932,358.1177,154.9520,205.2081,0,U,69817,999,269,.70482476E-4,.185E-5,0
CZ-6A R/B,2026-153U,2026-07-23T04:03:25.602048,14.53451811,.00867202,89.0172,358.0370,60.3867,300.5945,0,U,69818,999,273,.6510273E-4,.303E-5,0
STARLINK-37520,2026-154A,2026-07-23T06:53:16.049184,15.81044692,.0001026,53.1578,252.3986,138.1011,222.0090,0,U,69819,999,409,.13693392E-2,.280751E-2,0
STARLINK-37553,2026-154B,2026-07-23T06:52:11.301888,15.81012338,.00009132,53.1572,252.3938,136.0045,224.1050,0,U,69820,999,409,.17994215E-2,.372601E-2,0
STARLINK-37561,2026-154C,2026-07-23T03:49:01.974432,15.81072119,.00018367,53.1577,253.0219,133.7855,226.3320,0,U,69821,999,407,.18926405E-2,.393992E-2,0
STARLINK-37521,2026-154D,2026-07-22T20:12:47.156544,15.80955376,.00023842,53.1576,254.6015,64.3116,295.8152,0,U,69822,999,402,.16500239E-2,.339377E-2,0
STARLINK-37628,2026-154E,2026-07-22T20:11:41.877024,15.80949146,.00012843,53.1577,254.5963,98.8087,261.3081,0,U,69823,999,402,.14936307E-2,.305848E-2,0
STARLINK-37695,2026-154F,2026-07-22T13:57:32.724000,15.80912502,.00011048,53.1579,255.8167,41.0108,319.0998,0,U,69824,999,398,.5641896E-3,.112317E-2,0
STARLINK-37690,2026-154G,2026-07-22T12:34:21.083232,15.80909789,.00013918,53.1581,256.1706,85.9611,274.1570,0,U,69825,999,397,.10575933E-2,.213642E-2,0
STARLINK-37710,2026-154H,2026-07-23T06:45:42.420672,15.81180042,.00013091,53.1578,252.3630,167.9651,192.1403,0,U,69826,999,409,.24460877E-2,.519584E-2,0
STARLINK-38031,2026-154J,2026-07-22T12:32:11.491872,15.80947252,.00013345,53.1580,256.1601,63.8306,296.2853,0,U,69827,999,397,.13000119E-2,.264809E-2,0
STARLINK-38001,2026-154K,2026-07-22T14:02:08.634624,15.80891298,.00010951,53.1584,255.8380,137.5046,222.6062,0,U,69828,999,398,.6656854E-3,.132836E-2,0
STARLINK-37622,2026-154L,2026-07-22T14:01:04.095552,15.80919119,.00015411,53.1582,255.8333,38.0483,322.0649,0,U,69829,999,398,.86542113E-3,.173961E-2,0
STARLINK-37621,2026-154M,2026-07-22T13:59:59.751744,15.80886511,.0003174,53.1586,255.8272,16.6526,343.4600,0,U,69830,999,398,.69012884E-3,.137815E-2,0
STARLINK-37918,2026-154N,2026-07-22T12:27:52.297056,15.80878060,.00012836,53.1580,256.1398,93.8146,266.3024,0,U,69831,999,397,.73962262E-3,.147837E-2,0
STARLINK-37887,2026-154P,2026-07-22T15:28:51.290112,15.80940787,.00022187,53.1579,255.5005,155.2003,204.9127,0,U,69832,999,399,.1110568E-2,.225006E-2,0
